NORAD_CAT_ID,OBJECT_NAME,OBJECT_TYPE,EPOCH,MEAN_MOTION,ECCENTRICITY,INCLINATION,RA_OF_ASC_NODE,ARG_OF_PERICENTER,MEAN_ANOMALY,BSTAR,MEAN_MOTION_DOT,MEAN_MOTION_DDOT,TLE_LINE0,TLE_LINE1,TLE_LINE2,SEMIMAJOR_AXIS,PERIOD,APOGEE,PERIGEE,DECAYED
53260.0,STARLINK-4136,PAYLOAD,2023-01-28 19:10:43,15.08846067,0.000113,53.215,253.3242,81.3521,278.76,0.00030236,4.528e-05,0.0,0 STARLINK-4136,1 53260U 22086U   23028.79912029  .00004528  00000-0  30236-3 0  9994,2 53260  53.2150 253.3242 0001130  81.3521 278.7600 15.08846067 29400,6917.862,95.437,540.509,538.945,0.0
53260.0,STARLINK-4136,PAYLOAD,2023-01-28 20:46:07,15.08846931,0.0001145,53.2152,253.0265,80.9082,279.2039,0.00029927,4.479e-05,0.0,0 STARLINK-4136,1 53260U 22086U   23028.86535996  .00004479  00000-0  29927-3 0  9996,2 53260  53.2152 253.0265 0001145  80.9082 279.2039 15.08846931 29599,6917.859,95.437,540.516,538.932,0.0
53260.0,STARLINK-4136,PAYLOAD,2023-01-29 12:39:58,15.08835902,0.0001199,53.2152,250.0529,79.2487,280.864,6.5058e-05,7.48e-06,0.0,0 STARLINK-4136,1 53260U 22086U   23029.52776454  .00000748  00000-0  65058-4 0  9997,2 53260  53.2152 250.0529 0001199  79.2487 280.8640 15.08835902 29512,6917.893,95.438,540.587,538.928,0.0
53260.0,STARLINK-4136,PAYLOAD,2023-01-29 20:36:54,15.08834493,0.0001219,53.2154,248.5665,73.8254,286.2872,8.4371e-05,1.055e-05,0.0,0 STARLINK-4136,1 53260U 22086U   23029.85896714  .00001055  00000-0  84371-4 0  9996,2 53260  53.2154 248.5665 0001219  73.8254 286.2872 15.08834493 29748,6917.897,95.438,540.606,538.919,0.0
53260.0,STARLINK-4136,PAYLOAD,2023-01-30 12:30:45,15.08842867,0.0001297,53.2154,245.5932,70.2218,289.8914,0.00012547,1.71e-05,0.0,0 STARLINK-4136,1 53260U 22086U   23030.52136399  .00001710  00000-0  12547-3 0  9991,2 53260  53.2154 245.5932 0001297  70.2218 289.8914 15.08842867 29840,6917.872,95.437,540.634,538.839,0.0
53260.0,STARLINK-4136,PAYLOAD,2023-01-30 17:16:55,15.08845649,0.0001281,53.2162,244.7013,71.0394,289.0737,9.9703e-05,1.299e-05,0.0,0 STARLINK-4136,1 53260U 22086U   23030.72008221  .00001299  00000-0  99703-4 0  9997,2 53260  53.2162 244.7013 0001281  71.0394 289.0737 15.08845649 29696,6917.863,95.437,540.614,538.842,0.0
53260.0,STARLINK-4136,PAYLOAD,2023-01-31 12:21:32,15.08838929,0.0001298,53.2162,241.1328,69.7058,290.4074,0.00012815,1.752e-05,0.0,0 STARLINK-4136,1 53260U 22086U   23031.51496410  .00001752  00000-0  12815-3 0  9998,2 53260  53.2162 241.1328 0001298  69.7058 290.4074 15.08838929 29812,6917.884,95.438,540.647,538.851,0.0
53260.0,STARLINK-4136,PAYLOAD,2023-01-31 20:18:28,15.08842973,0.0001267,53.2161,239.6453,74.6868,285.4265,0.00015112,2.118e-05,0.0,0 STARLINK-4136,1 53260U 22086U   23031.84616114  .00002118  00000-0  15112-3 0  9999,2 53260  53.2161 239.6453 0001267  74.6868 285.4265 15.08842973 30049,6917.871,95.437,540.613,538.86,0.0
53260.0,STARLINK-4136,PAYLOAD,2023-02-01 13:47:42,15.08841766,0.0001266,53.216,236.3735,80.4279,279.6856,3.4544e-05,2.62e-06,0.0,0 STARLINK-4136,1 53260U 22086U   23032.57480314  .00000262  00000-0  34544-4 0  9990,2 53260  53.2160 236.3735 0001266  80.4279 279.6856 15.08841766 30157,6917.875,95.437,540.616,538.864,0.0
53260.0,STARLINK-4136,PAYLOAD,2023-02-01 20:09:15,15.08843287,0.0001273,53.2159,235.184,81.4075,278.7062,3.7741e-05,3.13e-06,0.0,0 STARLINK-4136,1 53260U 22086U   23032.83976097  .00000313  00000-0  37741-4 0  9996,2 53260  53.2159 235.1840 0001273  81.4075 278.7062 15.08843287 30016,6917.87,95.437,540.616,538.855,0.0
53260.0,STARLINK-4136,PAYLOAD,2023-02-02 16:49:16,15.08836404,0.0001294,53.216,231.3184,81.6183,278.4956,3.7185e-05,3.04e-06,0.0,0 STARLINK-4136,1 53260U 22086U   23033.70088577  .00000304  00000-0  37185-4 0  9992,2 53260  53.2160 231.3184 0001294  81.6183 278.4956 15.08836404 30148,6917.891,95.438,540.652,538.861,0.0
53260.0,STARLINK-4136,PAYLOAD,2023-02-03 13:29:17,15.0883626,0.0001298,53.2158,227.4532,82.1202,277.9938,4.1258e-05,3.69e-06,0.0,0 STARLINK-4136,1 53260U 22086U   23034.56200685  .00000369  00000-0  41258-4 0  9990,2 53260  53.2158 227.4532 0001298  82.1202 277.9938 15.08836260 30458,6917.892,95.438,540.655,538.859,0.0
53260.0,STARLINK-4136,PAYLOAD,2023-02-04 05:23:08,15.08843194,0.0001255,53.2159,224.4792,85.419,274.6945,4.9532e-06,-2.09e-06,0.0,0 STARLINK-4136,1 53260U 22086U   23035.22440421 -.00000209  00000-0  49532-5 0  9996,2 53260  53.2159 224.4792 0001255  85.4190 274.6945 15.08843194 30376,6917.871,95.437,540.604,538.867,0.0
53260.0,STARLINK-4136,PAYLOAD,2023-02-04 13:20:04,15.08838157,0.000131,53.216,222.9921,89.0571,271.0572,6.6054e-05,7.63e-06,0.0,0 STARLINK-4136,1 53260U 22086U   23035.55560709  .00000763  00000-0  66054-4 0  9995,2 53260  53.2160 222.9921 0001310  89.0571 271.0572 15.08838157 30606,6917.886,95.438,540.657,538.845,0.0
53260.0,STARLINK-4136,PAYLOAD,2023-02-04 19:41:36,15.08841238,0.0001278,53.2163,221.8028,90.2585,269.8554,8.5539e-05,1.074e-05,0.0,0 STARLINK-4136,1 53260U 22086U   23035.82056461  .00001074  00000-0  85539-4 0  9995,2 53260  53.2163 221.8028 0001278  90.2585 269.8554 15.08841238 30640,6917.877,95.437,540.626,538.858,0.0
53260.0,STARLINK-4136,PAYLOAD,2023-02-05 05:13:55,15.08837602,0.0001241,53.2166,220.0189,88.6191,271.4943,7.718e-05,9.41e-06,0.0,0 STARLINK-4136,1 53260U 22086U   23036.21800753  .00000941  00000-0  77180-4 0  9995,2 53260  53.2166 220.0189 0001241  88.6191 271.4943 15.08837602 30524,6917.888,95.438,540.611,538.894,0.0
53260.0,STARLINK-4136,PAYLOAD,2023-02-05 21:07:47,15.08839119,0.0001176,53.2173,217.0451,89.0819,271.0308,4.6653e-05,4.55e-06,0.0,0 STARLINK-4136,1 53260U 22086U   23036.88040850  .00000455  00000-0  46653-4 0  9993,2 53260  53.2173 217.0451 0001176  89.0819 271.0308 15.08839119 30806,6917.883,95.438,540.562,538.935,0.0
53260.0,STARLINK-4136,PAYLOAD,2023-02-06 11:26:15,15.08838653,0.0001173,53.2173,214.3685,86.0475,274.0651,6.7834e-05,7.92e-06,0.0,0 STARLINK-4136,1 53260U 22086U   23037.47656964  .00000792  00000-0  67834-4 0  9996,2 53260  53.2173 214.3685 0001173  86.0475 274.0651 15.08838653 30713,6917.885,95.438,540.561,538.938,0.0
53260.0,STARLINK-4136,PAYLOAD,2023-02-06 19:23:10,15.08846108,0.0001167,53.2175,212.8817,85.1161,274.9965,8.3283e-05,1.038e-05,0.0,0 STARLINK-4136,1 53260U 22086U   23037.80776457  .00001038  00000-0  83283-4 0  9993,2 53260  53.2175 212.8817 0001167  85.1161 274.9965 15.08846108 30946,6917.862,95.437,540.534,538.919,0.0
53260.0,STARLINK-4136,PAYLOAD,2023-02-07 11:17:02,15.08839077,0.0001145,53.2177,209.9085,84.6054,275.5068,8.4609e-05,1.059e-05,0.0,0 STARLINK-4136,1 53260U 22086U   23038.47016823  .00001059  00000-0  84609-4 0  9997,2 53260  53.2177 209.9085 0001145  84.6054 275.5068 15.08839077 31043,6917.883,95.438,540.54,538.956,0.0
53260.0,STARLINK-4136,PAYLOAD,2023-02-07 17:38:35,15.08802961,0.0001387,53.2173,208.7224,74.382,285.7325,0.00065287,0.00010107,0.0,0 STARLINK-4136,1 53260U 22086U   23038.73513292  .00010107  00000-0  65287-3 0  9992,2 53260  53.2173 208.7224 0001387  74.3820 285.7325 15.08802961 30901,6917.994,95.44,540.818,538.899,0.0
53260.0,STARLINK-4136,PAYLOAD,2023-02-08 14:18:31,15.08904534,0.0001141,53.2174,204.8534,84.746,275.3663,0.00059642,9.233e-05,0.0,0 STARLINK-4136,1 53260U 22086U   23039.59619246  .00009233  00000-0  59642-3 0  9999,2 53260  53.2174 204.8534 0001141  84.7460 275.3663 15.08904534 31030,6917.683,95.433,540.337,538.759,0.0
53260.0,STARLINK-4136,PAYLOAD,2023-02-08 17:29:21,15.08834095,0.0001417,53.2168,204.2593,83.5338,276.5816,-0.00013995,-2.514e-05,0.0,0 STARLINK-4136,1 53260U 22086U   23039.72872592 -.00002514  00000-0 -13995-3 0  9997,2 53260  53.2168 204.2593 0001417  83.5338 276.5816 15.08834095 31058,6917.898,95.438,540.744,538.783,0.0
53260.0,STARLINK-4136,PAYLOAD,2023-02-08 22:15:31,15.08836228,0.0001276,53.2169,203.3666,87.2336,272.8802,-0.00010637,-1.98e-05,0.0,0 STARLINK-4136,1 53260U 22086U   23039.92744473 -.00001980  00000-0 -10637-3 0  9991,2 53260  53.2169 203.3666 0001276  87.2336 272.8802 15.08836228 31269,6917.892,95.438,540.64,538.874,0.0
53260.0,STARLINK-4136,PAYLOAD,2023-02-09 10:58:36,15.08828091,0.0001271,53.2165,200.9878,86.7916,273.3221,-0.00013817,-2.485e-05,0.0,0 STARLINK-4136,1 53260U 22086U   23040.45736970 -.00002485  00000-0 -13817-3 0  9998,2 53260  53.2165 200.9878 0001271  86.7916 273.3221 15.08828091 31345,6917.917,95.438,540.661,538.903,0.0
53260.0,STARLINK-4136,PAYLOAD,2023-02-09 17:20:08,15.08839025,0.0001415,53.2161,199.7995,81.9456,278.1697,-6.5667e-06,-3.92e-06,0.0,0 STARLINK-4136,1 53260U 22086U   23040.72232631 -.00000392  00000-0 -65667-5 0  9990,2 53260  53.2161 199.7995 0001415  81.9456 278.1697 15.08839025 31385,6917.883,95.438,540.727,538.769,0.0
53260.0,STARLINK-4136,PAYLOAD,2023-02-10 02:52:27,15.0883741,0.000127,53.2166,198.015,84.7685,275.3452,-6.4963e-05,-1.322e-05,0.0,0 STARLINK-4136,1 53260U 22086U   23041.11976696 -.00001322  00000-0 -64963-4 0  9991,2 53260  53.2166 198.0150 0001270  84.7685 275.3452 15.08837410 31440,6917.888,95.438,540.632,538.875,0.0
53260.0,STARLINK-4136,PAYLOAD,2023-02-10 14:00:09,15.08855031,0.000135,53.2166,195.9338,75.6554,284.4588,-0.00035522,-5.939e-05,0.0,0 STARLINK-4136,1 53260U 22086U   23041.58344093 -.00005939  00000-0 -35522-3 0  9998,2 53260  53.2166 195.9338 0001350  75.6554 284.4588 15.08855031 31335,6917.834,95.437,540.633,538.766,0.0
53260.0,STARLINK-4136,PAYLOAD,2023-02-10 15:35:32,15.08855622,0.0001444,53.2167,195.6365,80.8899,279.2256,-0.00031451,-5.292e-05,0.0,0 STARLINK-4136,1 53260U 22086U   23041.64968024 -.00005292  00000-0 -31451-3 0  9990,2 53260  53.2167 195.6365 0001444  80.8899 279.2256 15.08855622 31528,6917.833,95.437,540.697,538.699,0.0
53260.0,STARLINK-4136,PAYLOAD,2023-02-11 02:43:13,15.08865154,0.0001481,53.2179,193.5539,77.4632,282.6526,0.00058126,8.981e-05,0.0,0 STARLINK-4136,1 53260U 22086U   23042.11335183  .00008981  00000-0  58126-3 0  9991,2 53260  53.2179 193.5539 0001481  77.4632 282.6526 15.08865154 31416,6917.804,95.436,540.693,538.644,0.0
